EUTELSAT 7A             
1 28187U 04008A   25200.67125310  .00000102  00000+0  00000+0 0  9993
2 28187   4.9815  76.0030 0001576  79.8966 244.2336  1.00272803 78018
EUTELSAT 174A           
1 28924U 05052A   25200.84142049  .00000009  00000+0  00000+0 0  9995
2 28924   3.3735  80.6934 0005958  41.6567 292.3822  1.00271667 48992
EUTELSAT HOTBIRD 13E    
1 28946U 06007B   25200.83984635 -.00000173  00000+0  00000+0 0  9997
2 28946   1.2100  89.6311 0006256 184.1724 317.7108  0.98118325 70987
EUTELSAT HOTBIRD 13B    
1 29270U 06032A   25200.94975351  .00000158  00000+0  00000+0 0  9995
2 29270   0.7998  85.9695 0003560  37.6248 189.3773  1.00272992 43974
EUTELSAT HOTBIRD 13C    
1 33459U 08065A   25200.88794788 -.00000100  00000+0  00000+0 0  9991
2 33459   2.0924  83.1895 0003158  44.3474 117.5159  1.00271439 44015
EUTELSAT 36B            
1 36101U 09065A   25200.93011140  .00000115  00000+0  00000+0 0  9994
2 36101   0.0526 346.1063 0005580 134.1948 202.9681  1.00269649 57374
EUTELSAT KA-SAT 9A      
1 37258U 10069A   25200.70063324  .00000065  00000+0  00000+0 0  9994
2 37258   0.0630 302.6121 0003716 190.6164  65.7204  1.00271476 40674
EUTELSAT 7 WEST A       
1 37816U 11051A   25200.88239274 -.00000057  00000+0  00000+0 0  9996
2 37816   0.0624 344.9290 0004650 152.9490 110.3688  1.00270858 50569
